[{"OBJECT_NAME":"COSMOS 2531 (RODNIK-S 17)","OBJECT_ID":"2018-097B","EPOCH":"2026-03-09T23:41:15.187776","MEAN_MOTION":12.42909074,"ECCENTRICITY":0.00159719,"INCLINATION":82.5155,"RA_OF_ASC_NODE":284.8934,"ARG_OF_PERICENTER":272.0956,"MEAN_ANOMALY":87.8295,"EPHEMERIS_TYPE":0,"CLASSIFICATION_TYPE":"U","NORAD_CAT_ID":43752,"ELEMENT_SET_NO":999,"REV_AT_EPOCH":32998,"BSTAR":-0.00046814223,"MEAN_MOTION_DOT":-5.5e-7,"MEAN_MOTION_DDOT":0},{"OBJECT_NAME":"DELTA 1 DEB","OBJECT_ID":"1973-086HY","EPOCH":"2026-03-09T20:02:42.213984","MEAN_MOTION":12.36921331,"ECCENTRICITY":0.00203122,"INCLINATION":102.4021,"RA_OF_ASC_NODE":83.3832,"ARG_OF_PERICENTER":150.396,"MEAN_ANOMALY":24.9074,"EPHEMERIS_TYPE":0,"CLASSIFICATION_TYPE":"U","NORAD_CAT_ID":42584,"ELEMENT_SET_NO":999,"REV_AT_EPOCH":55521,"BSTAR":0.00024763333,"MEAN_MOTION_DOT":-1.5e-7,"MEAN_MOTION_DDOT":0}]
